[{"OBJECT_NAME":"JILIN-1 05","OBJECT_ID":"2017-074B","EPOCH":"2026-03-09T21:56:30.612480","MEAN_MOTION":15.3245271,"ECCENTRICITY":0.00045948,"INCLINATION":97.4781,"RA_OF_ASC_NODE":173.8936,"ARG_OF_PERICENTER":206.4038,"MEAN_ANOMALY":153.6971,"EPHEMERIS_TYPE":0,"CLASSIFICATION_TYPE":"U","NORAD_CAT_ID":43023,"ELEMENT_SET_NO":999,"REV_AT_EPOCH":45879,"BSTAR":0.00026108793,"MEAN_MOTION_DOT":8.104e-5,"MEAN_MOTION_DDOT":0},{"OBJECT_NAME":"STARLINK-34241","OBJECT_ID":"2025-117AC","EPOCH":"2026-03-09T05:48:23.986656","MEAN_MOTION":15.30198378,"ECCENTRICITY":0.00011516,"INCLINATION":53.1615,"RA_OF_ASC_NODE":41.9927,"ARG_OF_PERICENTER":94.138,"MEAN_ANOMALY":265.9753,"EPHEMERIS_TYPE":0,"CLASSIFICATION_TYPE":"U","NORAD_CAT_ID":64229,"ELEMENT_SET_NO":999,"REV_AT_EPOCH":4448,"BSTAR":0.00049080677,"MEAN_MOTION_DOT":0.00014204,"MEAN_MOTION_DDOT":0}]
